[{"OBJECT_NAME":"STARLINK-3257","OBJECT_ID":"2021-125AZ","EPOCH":"2026-03-09T22:54:59.277600","MEAN_MOTION":15.08839458,"ECCENTRICITY":0.00014259,"INCLINATION":53.2162,"RA_OF_ASC_NODE":238.0174,"ARG_OF_PERICENTER":89.8906,"MEAN_ANOMALY":270.225,"EPHEMERIS_TYPE":0,"CLASSIFICATION_TYPE":"U","NORAD_CAT_ID":50203,"ELEMENT_SET_NO":999,"REV_AT_EPOCH":23683,"BSTAR":-1.6284709e-5,"MEAN_MOTION_DOT":-5.47e-6,"MEAN_MOTION_DDOT":0},{"OBJECT_NAME":"UNKNOWN","OBJECT_ID":"","EPOCH":"2026-03-07T20:34:11.411328","MEAN_MOTION":13.11333445,"ECCENTRICITY":0.0894896,"INCLINATION":65.8286,"RA_OF_ASC_NODE":264.5373,"ARG_OF_PERICENTER":244.8718,"MEAN_ANOMALY":105.693,"EPHEMERIS_TYPE":0,"CLASSIFICATION_TYPE":"U","NORAD_CAT_ID":81792,"ELEMENT_SET_NO":999,"REV_AT_EPOCH":9119,"BSTAR":0.00068623,"MEAN_MOTION_DOT":1.902e-5,"MEAN_MOTION_DDOT":0}]
